{
    "type": "FeatureCollection",
    "features": [
        {
            "type": "Feature",
            "geometry": {
                "type": "Polygon",
                "coordinates": [
                    [
                        [
                            -112.062704,
                            33.319651
                        ],
                        [
                            -112.066325,
                            33.319669
                        ],
                        [
                            -112.083594,
                            33.319699
                        ],
                        [
                            -112.083618,
                            33.319699
                        ],
                        [
                            -112.083619,
                            33.319699
                        ],
                        [
                            -112.083617,
                            33.312569
                        ],
                        [
                            -112.083617,
                            33.312494
                        ],
                        [
                            -112.083615,
                            33.308396
                        ],
                        [
                            -112.082398,
                            33.308395
                        ],
                        [
                            -112.082456,
                            33.308193
                        ],
                        [
                            -112.082473,
                            33.308036
                        ],
                        [
                            -112.082493,
                            33.307907
                        ],
                        [
                            -112.082478,
                            33.307723
                        ],
                        [
                            -112.082455,
                            33.307532
                        ],
                        [
                            -112.082402,
                            33.307346
                        ],
                        [
                            -112.082325,
                            33.307128
                        ],
                        [
                            -112.082217,
                            33.306937
                        ],
                        [
                            -112.082091,
                            33.306741
                        ],
                        [
                            -112.080801,
                            33.304821
                        ],
                        [
                            -112.080635,
                            33.304881
                        ],
                        [
                            -112.080383,
                            33.304974
                        ],
                        [
                            -112.080202,
                            33.305031
                        ],
                        [
                            -112.080011,
                            33.305079
                        ],
                        [
                            -112.079802,
                            33.305121
                        ],
                        [
                            -112.0796,
                            33.305154
                        ],
                        [
                            -112.079403,
                            33.305174
                        ],
                        [
                            -112.079154,
                            33.305187
                        ],
                        [
                            -112.078851,
                            33.305186
                        ],
                        [
                            -112.078702,
                            33.305173
                        ],
                        [
                            -112.078524,
                            33.305155
                        ],
                        [
                            -112.078359,
                            33.305132
                        ],
                        [
                            -112.07817,
                            33.305097
                        ],
                        [
                            -112.077946,
                            33.305042
                        ],
                        [
                            -112.077639,
                            33.304945
                        ],
                        [
                            -112.077411,
                            33.304856
                        ],
                        [
                            -112.07711,
                            33.304716
                        ],
                        [
                            -112.076847,
                            33.304596
                        ],
                        [
                            -112.076432,
                            33.304407
                        ],
                        [
                            -112.076118,
                            33.304263
                        ],
                        [
                            -112.075894,
                            33.304172
                        ],
                        [
                            -112.075872,
                            33.304163
                        ],
                        [
                            -112.075244,
                            33.30398
                        ],
                        [
                            -112.07477,
                            33.30391
                        ],
                        [
                            -112.07454,
                            33.303896
                        ],
                        [
                            -112.074344,
                            33.303894
                        ],
                        [
                            -112.073768,
                            33.303936
                        ],
                        [
                            -112.072136,
                            33.304276
                        ],
                        [
                            -112.070747,
                            33.304586
                        ],
                        [
                            -112.070125,
                            33.304783
                        ],
                        [
                            -112.069791,
                            33.304932
                        ],
                        [
                            -112.069488,
                            33.305118
                        ],
                        [
                            -112.06917,
                            33.30537
                        ],
                        [
                            -112.068898,
                            33.305618
                        ],
                        [
                            -112.068627,
                            33.305936
                        ],
                        [
                            -112.068352,
                            33.306283
                        ],
                        [
                            -112.068148,
                            33.306571
                        ],
                        [
                            -112.067806,
                            33.307011
                        ],
                        [
                            -112.06746,
                            33.307461
                        ],
                        [
                            -112.067044,
                            33.307951
                        ],
                        [
                            -112.066753,
                            33.308289
                        ],
                        [
                            -112.066435,
                            33.30861
                        ],
                        [
                            -112.066033,
                            33.308878
                        ],
                        [
                            -112.06566,
                            33.30909
                        ],
                        [
                            -112.065372,
                            33.309213
                        ],
                        [
                            -112.065097,
                            33.309339
                        ],
                        [
                            -112.064766,
                            33.309445
                        ],
                        [
                            -112.064459,
                            33.309518
                        ],
                        [
                            -112.064391,
                            33.309526
                        ],
                        [
                            -112.063994,
                            33.309597
                        ],
                        [
                            -112.063707,
                            33.309619
                        ],
                        [
                            -112.063292,
                            33.309636
                        ],
                        [
                            -112.063112,
                            33.30963
                        ],
                        [
                            -112.06293,
                            33.309618
                        ],
                        [
                            -112.06277,
                            33.309603
                        ],
                        [
                            -112.06257,
                            33.309576
                        ],
                        [
                            -112.062337,
                            33.309534
                        ],
                        [
                            -112.061991,
                            33.309452
                        ],
                        [
                            -112.061731,
                            33.309372
                        ],
                        [
                            -112.061546,
                            33.309305
                        ],
                        [
                            -112.06143,
                            33.309259
                        ],
                        [
                            -112.061225,
                            33.309169
                        ],
                        [
                            -112.061089,
                            33.309104
                        ],
                        [
                            -112.060957,
                            33.309034
                        ],
                        [
                            -112.060891,
                            33.308998
                        ],
                        [
                            -112.060829,
                            33.308962
                        ],
                        [
                            -112.060703,
                            33.308885
                        ],
                        [
                            -112.060563,
                            33.308793
                        ],
                        [
                            -112.060229,
                            33.308564
                        ],
                        [
                            -112.059956,
                            33.30837
                        ],
                        [
                            -112.059447,
                            33.308016
                        ],
                        [
                            -112.059008,
                            33.307707
                        ],
                        [
                            -112.058553,
                            33.307422
                        ],
                        [
                            -112.05806,
                            33.307136
                        ],
                        [
                            -112.057621,
                            33.306918
                        ],
                        [
                            -112.057118,
                            33.306692
                        ],
                        [
                            -112.056381,
                            33.306415
                        ],
                        [
                            -112.055589,
                            33.30614
                        ],
                        [
                            -112.053362,
                            33.305334
                        ],
                        [
                            -112.053161,
                            33.305261
                        ],
                        [
                            -112.05299,
                            33.305206
                        ],
                        [
                            -112.052849,
                            33.305166
                        ],
                        [
                            -112.052636,
                            33.305115
                        ],
                        [
                            -112.052454,
                            33.305078
                        ],
                        [
                            -112.052239,
                            33.305044
                        ],
                        [
                            -112.051931,
                            33.305011
                        ],
                        [
                            -112.051698,
                            33.304998
                        ],
                        [
                            -112.038854,
                            33.304983
                        ],
                        [
                            -112.036749,
                            33.304956
                        ],
                        [
                            -112.036294,
                            33.304954
                        ],
                        [
                            -112.036123,
                            33.304947
                        ],
                        [
                            -112.035981,
                            33.304936
                        ],
                        [
                            -112.035812,
                            33.304915
                        ],
                        [
                            -112.035701,
                            33.304898
                        ],
                        [
                            -112.035453,
                            33.304846
                        ],
                        [
                            -112.035247,
                            33.304794
                        ],
                        [
                            -112.03506,
                            33.304754
                        ],
                        [
                            -112.034875,
                            33.304721
                        ],
                        [
                            -112.034768,
                            33.304704
                        ],
                        [
                            -112.034661,
                            33.30469
                        ],
                        [
                            -112.034493,
                            33.304671
                        ],
                        [
                            -112.034349,
                            33.304661
                        ],
                        [
                            -112.034202,
                            33.304657
                        ],
                        [
                            -112.034076,
                            33.304658
                        ],
                        [
                            -112.033891,
                            33.304668
                        ],
                        [
                            -112.033855,
                            33.304673
                        ],
                        [
                            -112.033784,
                            33.304682
                        ],
                        [
                            -112.033612,
                            33.30471
                        ],
                        [
                            -112.033335,
                            33.304767
                        ],
                        [
                            -112.03301,
                            33.304846
                        ],
                        [
                            -112.032779,
                            33.304904
                        ],
                        [
                            -112.032463,
                            33.304977
                        ],
                        [
                            -112.032329,
                            33.305002
                        ],
                        [
                            -112.032215,
                            33.305015
                        ],
                        [
                            -112.032046,
                            33.305031
                        ],
                        [
                            -112.031963,
                            33.305037
                        ],
                        [
                            -112.031879,
                            33.305041
                        ],
                        [
                            -112.03179,
                            33.305042
                        ],
                        [
                            -112.030965,
                            33.305045
                        ],
                        [
                            -112.02953,
                            33.305049
                        ],
                        [
                            -112.029345,
                            33.305059
                        ],
                        [
                            -112.02916,
                            33.305073
                        ],
                        [
                            -112.028977,
                            33.305094
                        ],
                        [
                            -112.028797,
                            33.305119
                        ],
                        [
                            -112.028539,
                            33.305164
                        ],
                        [
                            -112.028346,
                            33.305205
                        ],
                        [
                            -112.028091,
                            33.305269
                        ],
                        [
                            -112.027779,
                            33.305363
                        ],
                        [
                            -112.027533,
                            33.305465
                        ],
                        [
                            -112.027325,
                            33.305558
                        ],
                        [
                            -112.027121,
                            33.305656
                        ],
                        [
                            -112.026917,
                            33.30576
                        ],
                        [
                            -112.026461,
                            33.306019
                        ],
                        [
                            -112.02668,
                            33.306282
                        ],
                        [
                            -112.026876,
                            33.306553
                        ],
                        [
                            -112.026993,
                            33.306762
                        ],
                        [
                            -112.027131,
                            33.307044
                        ],
                        [
                            -112.027228,
                            33.30726
                        ],
                        [
                            -112.027257,
                            33.307353
                        ],
                        [
                            -112.027335,
                            33.307584
                        ],
                        [
                            -112.027381,
                            33.30777
                        ],
                        [
                            -112.027729,
                            33.307715
                        ],
                        [
                            -112.027841,
                            33.307698
                        ],
                        [
                            -112.028471,
                            33.307606
                        ],
                        [
                            -112.028598,
                            33.307797
                        ],
                        [
                            -112.028724,
                            33.307986
                        ],
                        [
                            -112.028862,
                            33.308193
                        ],
                        [
                            -112.029025,
                            33.308437
                        ],
                        [
                            -112.029181,
                            33.308672
                        ],
                        [
                            -112.029215,
                            33.308755
                        ],
                        [
                            -112.029089,
                            33.308829
                        ],
                        [
                            -112.028904,
                            33.308912
                        ],
                        [
                            -112.02866,
                            33.308985
                        ],
                        [
                            -112.028416,
                            33.309029
                        ],
                        [
                            -112.028168,
                            33.309042
                        ],
                        [
                            -112.027907,
                            33.309023
                        ],
                        [
                            -112.027435,
                            33.308947
                        ],
                        [
                            -112.027406,
                            33.309137
                        ],
                        [
                            -112.027377,
                            33.309282
                        ],
                        [
                            -112.027341,
                            33.309429
                        ],
                        [
                            -112.027302,
                            33.309562
                        ],
                        [
                            -112.02749,
                            33.309609
                        ],
                        [
                            -112.027828,
                            33.309687
                        ],
                        [
                            -112.027917,
                            33.309717
                        ],
                        [
                            -112.027925,
                            33.30971
                        ],
                        [
                            -112.027943,
                            33.309699
                        ],
                        [
                            -112.027972,
                            33.309688
                        ],
                        [
                            -112.028001,
                            33.309685
                        ],
                        [
                            -112.028025,
                            33.309687
                        ],
                        [
                            -112.028054,
                            33.309696
                        ],
                        [
                            -112.029252,
                            33.310075
                        ],
                        [
                            -112.029591,
                            33.310183
                        ],
                        [
                            -112.029837,
                            33.310286
                        ],
                        [
                            -112.030026,
                            33.310386
                        ],
                        [
                            -112.030182,
                            33.310483
                        ],
                        [
                            -112.030304,
                            33.31057
                        ],
                        [
                            -112.030547,
                            33.310782
                        ],
                        [
                            -112.030606,
                            33.310843
                        ],
                        [
                            -112.030886,
                            33.311167
                        ],
                        [
                            -112.030956,
                            33.311245
                        ],
                        [
                            -112.031074,
                            33.311323
                        ],
                        [
                            -112.032021,
                            33.311848
                        ],
                        [
                            -112.032358,
                            33.312052
                        ],
                        [
                            -112.032506,
                            33.312146
                        ],
                        [
                            -112.032751,
                            33.312306
                        ],
                        [
                            -112.033376,
                            33.312656
                        ],
                        [
                            -112.033993,
                            33.31302
                        ],
                        [
                            -112.034285,
                            33.313249
                        ],
                        [
                            -112.034333,
                            33.313305
                        ],
                        [
                            -112.034674,
                            33.313436
                        ],
                        [
                            -112.036173,
                            33.314439
                        ],
                        [
                            -112.036199,
                            33.319639
                        ],
                        [
                            -112.036199,
                            33.319644
                        ],
                        [
                            -112.040572,
                            33.319615
                        ],
                        [
                            -112.041596,
                            33.319615
                        ],
                        [
                            -112.041835,
                            33.319615
                        ],
                        [
                            -112.041888,
                            33.319615
                        ],
                        [
                            -112.042202,
                            33.319615
                        ],
                        [
                            -112.043462,
                            33.319614
                        ],
                        [
                            -112.044677,
                            33.319614
                        ],
                        [
                            -112.049111,
                            33.319612
                        ],
                        [
                            -112.054121,
                            33.319621
                        ],
                        [
                            -112.054318,
                            33.319621
                        ],
                        [
                            -112.05787,
                            33.319627
                        ],
                        [
                            -112.059794,
                            33.319636
                        ],
                        [
                            -112.059809,
                            33.319636
                        ],
                        [
                            -112.062704,
                            33.319651
                        ],
                        [
                            -112.062704,
                            33.319651
                        ],
                        [
                            -112.062704,
                            33.319651
                        ]
                    ]
                ]
            },
            "properties": {
                "name": "Camelot",
                "precinct": "CAMELOT",
                "precinct_number": "0095",
                "pct_num": 95,
                "district_full_name": "Camelot Voting Precinct",
                "county": "Maricopa",
                "state": "AZ",
                "source": "Maricopa County Elections GIS, Voting Precincts (2026-), approved Oct 1 2025, effective Jan 2 2026",
                "source_url": "https://services.arcgis.com/ykpntM6e3tHvzKRJ/ArcGIS/rest/services/Maricopa_County_Voting_Precincts_(2026_)/FeatureServer/0"
            },
            "bbox": [
                -112.083619,
                33.303894,
                -112.026461,
                33.319699
            ]
        },
        {
            "type": "Feature",
            "properties": {
                "name": "Zone_1",
                "fill": "rgba(130, 52, 47, 1)"
            },
            "geometry": {
                "type": "Polygon",
                "coordinates": [
                    [
                        [
                            -112.083602,
                            33.308866
                        ],
                        [
                            -112.082308,
                            33.309048
                        ],
                        [
                            -112.081409,
                            33.309792
                        ],
                        [
                            -112.079737,
                            33.311294
                        ],
                        [
                            -112.079062,
                            33.311749
                        ],
                        [
                            -112.078238,
                            33.311934
                        ],
                        [
                            -112.077123,
                            33.312215
                        ],
                        [
                            -112.076229,
                            33.312388
                        ],
                        [
                            -112.075401,
                            33.312604
                        ],
                        [
                            -112.075592,
                            33.313137
                        ],
                        [
                            -112.075983,
                            33.313801
                        ],
                        [
                            -112.076389,
                            33.314296
                        ],
                        [
                            -112.076935,
                            33.314684
                        ],
                        [
                            -112.079571,
                            33.315771
                        ],
                        [
                            -112.083581,
                            33.317081
                        ],
                        [
                            -112.083591,
                            33.310147
                        ],
                        [
                            -112.083602,
                            33.308866
                        ]
                    ]
                ]
            },
            "bbox": [
                -112.083602,
                33.308866,
                -112.075401,
                33.317081
            ]
        },
        {
            "type": "Feature",
            "properties": {
                "name": "Zone_2",
                "fill": "#312E81"
            },
            "geometry": {
                "type": "Polygon",
                "coordinates": [
                    [
                        [
                            -112.075272,
                            33.312569
                        ],
                        [
                            -112.073572,
                            33.31329
                        ],
                        [
                            -112.072056,
                            33.314178
                        ],
                        [
                            -112.069905,
                            33.315326
                        ],
                        [
                            -112.070202,
                            33.3158
                        ],
                        [
                            -112.0693,
                            33.316273
                        ],
                        [
                            -112.070367,
                            33.317731
                        ],
                        [
                            -112.071583,
                            33.319651
                        ],
                        [
                            -112.080148,
                            33.319651
                        ],
                        [
                            -112.080709,
                            33.316474
                        ],
                        [
                            -112.077192,
                            33.314927
                        ],
                        [
                            -112.076478,
                            33.314499
                        ],
                        [
                            -112.075969,
                            33.31394
                        ],
                        [
                            -112.075272,
                            33.312569
                        ]
                    ]
                ]
            },
            "bbox": [
                -112.080709,
                33.312569,
                -112.0693,
                33.319651
            ]
        },
        {
            "type": "Feature",
            "properties": {
                "name": "Zone_3",
                "fill": "rgba(47, 130, 48, 1)"
            },
            "geometry": {
                "type": "Polygon",
                "coordinates": [
                    [
                        [
                            -112.081711,
                            33.309333
                        ],
                        [
                            -112.082493,
                            33.308253
                        ],
                        [
                            -112.082397,
                            33.307311
                        ],
                        [
                            -112.08082,
                            33.304878
                        ],
                        [
                            -112.078762,
                            33.305268
                        ],
                        [
                            -112.077057,
                            33.304704
                        ],
                        [
                            -112.075646,
                            33.304119
                        ],
                        [
                            -112.074295,
                            33.303957
                        ],
                        [
                            -112.071544,
                            33.304441
                        ],
                        [
                            -112.070005,
                            33.304901
                        ],
                        [
                            -112.069099,
                            33.305502
                        ],
                        [
                            -112.067615,
                            33.307311
                        ],
                        [
                            -112.075438,
                            33.312294
                        ],
                        [
                            -112.07546,
                            33.312317
                        ],
                        [
                            -112.078811,
                            33.311536
                        ],
                        [
                            -112.079642,
                            33.311086
                        ],
                        [
                            -112.080344,
                            33.310513
                        ],
                        [
                            -112.081711,
                            33.309333
                        ]
                    ]
                ]
            },
            "bbox": [
                -112.082493,
                33.303957,
                -112.067615,
                33.312317
            ]
        },
        {
            "type": "Feature",
            "properties": {
                "name": "Zone_4",
                "fill": "rgba(130, 127, 47, 1)"
            },
            "geometry": {
                "type": "Polygon",
                "coordinates": [
                    [
                        [
                            -112.071464,
                            33.319665
                        ],
                        [
                            -112.070266,
                            33.317703
                        ],
                        [
                            -112.069265,
                            33.316268
                        ],
                        [
                            -112.070158,
                            33.315785
                        ],
                        [
                            -112.069865,
                            33.315364
                        ],
                        [
                            -112.068846,
                            33.31588
                        ],
                        [
                            -112.066855,
                            33.31689
                        ],
                        [
                            -112.064927,
                            33.317728
                        ],
                        [
                            -112.063693,
                            33.318
                        ],
                        [
                            -112.062459,
                            33.3181
                        ],
                        [
                            -112.061229,
                            33.318021
                        ],
                        [
                            -112.059995,
                            33.317756
                        ],
                        [
                            -112.059773,
                            33.318601
                        ],
                        [
                            -112.059794,
                            33.319634
                        ],
                        [
                            -112.071464,
                            33.319665
                        ]
                    ]
                ]
            },
            "bbox": [
                -112.071464,
                33.315364,
                -112.059773,
                33.319665
            ]
        },
        {
            "type": "Feature",
            "properties": {
                "name": "Zone_5",
                "fill": "rgba(108, 47, 130, 1)"
            },
            "geometry": {
                "type": "Polygon",
                "coordinates": [
                    [
                        [
                            -112.067519,
                            33.307475
                        ],
                        [
                            -112.066343,
                            33.308654
                        ],
                        [
                            -112.065227,
                            33.309203
                        ],
                        [
                            -112.063885,
                            33.309593
                        ],
                        [
                            -112.063083,
                            33.309553
                        ],
                        [
                            -112.062162,
                            33.309434
                        ],
                        [
                            -112.060574,
                            33.308846
                        ],
                        [
                            -112.058487,
                            33.307451
                        ],
                        [
                            -112.057053,
                            33.306697
                        ],
                        [
                            -112.055604,
                            33.306177
                        ],
                        [
                            -112.055212,
                            33.307392
                        ],
                        [
                            -112.055172,
                            33.308785
                        ],
                        [
                            -112.056049,
                            33.312962
                        ],
                        [
                            -112.05628,
                            33.313927
                        ],
                        [
                            -112.057271,
                            33.31582
                        ],
                        [
                            -112.057682,
                            33.316452
                        ],
                        [
                            -112.058228,
                            33.316877
                        ],
                        [
                            -112.059391,
                            33.317556
                        ],
                        [
                            -112.0623,
                            33.318007
                        ],
                        [
                            -112.063399,
                            33.317944
                        ],
                        [
                            -112.064687,
                            33.317714
                        ],
                        [
                            -112.066866,
                            33.316764
                        ],
                        [
                            -112.074532,
                            33.312439
                        ],
                        [
                            -112.067519,
                            33.307475
                        ]
                    ]
                ]
            },
            "bbox": [
                -112.074532,
                33.306177,
                -112.055172,
                33.318007
            ]
        },
        {
            "type": "Feature",
            "properties": {
                "name": "Zone_6",
                "fill": "rgba(47, 105, 130, 1)"
            },
            "geometry": {
                "type": "Polygon",
                "coordinates": [
                    [
                        [
                            -112.059712,
                            33.319601
                        ],
                        [
                            -112.05989,
                            33.317751
                        ],
                        [
                            -112.059344,
                            33.317633
                        ],
                        [
                            -112.058952,
                            33.31737
                        ],
                        [
                            -112.057967,
                            33.316819
                        ],
                        [
                            -112.057058,
                            33.31585
                        ],
                        [
                            -112.056208,
                            33.314764
                        ],
                        [
                            -112.055484,
                            33.312506
                        ],
                        [
                            -112.055164,
                            33.310565
                        ],
                        [
                            -112.052002,
                            33.31098
                        ],
                        [
                            -112.052164,
                            33.312046
                        ],
                        [
                            -112.051697,
                            33.312714
                        ],
                        [
                            -112.050557,
                            33.313659
                        ],
                        [
                            -112.050897,
                            33.315237
                        ],
                        [
                            -112.052206,
                            33.31589
                        ],
                        [
                            -112.051772,
                            33.317375
                        ],
                        [
                            -112.051444,
                            33.319614
                        ],
                        [
                            -112.059712,
                            33.319601
                        ]
                    ]
                ]
            },
            "bbox": [
                -112.05989,
                33.310565,
                -112.050557,
                33.319614
            ]
        },
        {
            "type": "Feature",
            "properties": {
                "name": "Zone_7",
                "fill": "rgba(47, 130, 113, 1)"
            },
            "geometry": {
                "type": "Polygon",
                "coordinates": [
                    [
                        [
                            -112.055227,
                            33.310472
                        ],
                        [
                            -112.055088,
                            33.309342
                        ],
                        [
                            -112.055018,
                            33.30878
                        ],
                        [
                            -112.055059,
                            33.308244
                        ],
                        [
                            -112.055224,
                            33.307167
                        ],
                        [
                            -112.055567,
                            33.306168
                        ],
                        [
                            -112.053836,
                            33.305561
                        ],
                        [
                            -112.052994,
                            33.305239
                        ],
                        [
                            -112.052162,
                            33.305073
                        ],
                        [
                            -112.048106,
                            33.304994
                        ],
                        [
                            -112.048147,
                            33.305717
                        ],
                        [
                            -112.049763,
                            33.307938
                        ],
                        [
                            -112.051963,
                            33.310929
                        ],
                        [
                            -112.051963,
                            33.310929
                        ],
                        [
                            -112.055227,
                            33.310472
                        ]
                    ]
                ]
            },
            "bbox": [
                -112.055567,
                33.304994,
                -112.048106,
                33.310929
            ]
        },
        {
            "type": "Feature",
            "properties": {
                "name": "Zone_8",
                "fill": "rgba(128, 130, 47, 1)"
            },
            "geometry": {
                "type": "Polygon",
                "coordinates": [
                    [
                        [
                            -112.051312,
                            33.31957
                        ],
                        [
                            -112.051687,
                            33.316753
                        ],
                        [
                            -112.051591,
                            33.315981
                        ],
                        [
                            -112.050437,
                            33.315226
                        ],
                        [
                            -112.048802,
                            33.313731
                        ],
                        [
                            -112.047667,
                            33.312734
                        ],
                        [
                            -112.043454,
                            33.313795
                        ],
                        [
                            -112.042579,
                            33.315583
                        ],
                        [
                            -112.040482,
                            33.316596
                        ],
                        [
                            -112.039893,
                            33.319605
                        ],
                        [
                            -112.051312,
                            33.31957
                        ]
                    ]
                ]
            },
            "bbox": [
                -112.051687,
                33.312734,
                -112.039893,
                33.319605
            ]
        },
        {
            "type": "Feature",
            "properties": {
                "name": "Zone_9",
                "fill": "rgba(130, 47, 57, 1)"
            },
            "geometry": {
                "type": "Polygon",
                "coordinates": [
                    [
                        [
                            -112.040499,
                            33.304999
                        ],
                        [
                            -112.040403,
                            33.3062
                        ],
                        [
                            -112.040727,
                            33.307311
                        ],
                        [
                            -112.043662,
                            33.312476
                        ],
                        [
                            -112.045604,
                            33.311902
                        ],
                        [
                            -112.043567,
                            33.30799
                        ],
                        [
                            -112.049569,
                            33.30833
                        ],
                        [
                            -112.048578,
                            33.306721
                        ],
                        [
                            -112.048059,
                            33.305813
                        ],
                        [
                            -112.048059,
                            33.305024
                        ],
                        [
                            -112.048051,
                            33.305024
                        ],
                        [
                            -112.040499,
                            33.304999
                        ]
                    ]
                ]
            },
            "bbox": [
                -112.049569,
                33.304999,
                -112.040403,
                33.312476
            ]
        },
        {
            "type": "Feature",
            "properties": {
                "name": "Zone_10",
                "fill": "rgba(96, 47, 130, 1)"
            },
            "geometry": {
                "type": "Polygon",
                "coordinates": [
                    [
                        [
                            -112.040464,
                            33.304999
                        ],
                        [
                            -112.035771,
                            33.30496
                        ],
                        [
                            -112.034364,
                            33.30474
                        ],
                        [
                            -112.033831,
                            33.304767
                        ],
                        [
                            -112.033326,
                            33.304835
                        ],
                        [
                            -112.03236,
                            33.305043
                        ],
                        [
                            -112.030377,
                            33.305096
                        ],
                        [
                            -112.029277,
                            33.30512
                        ],
                        [
                            -112.028273,
                            33.305292
                        ],
                        [
                            -112.027331,
                            33.305617
                        ],
                        [
                            -112.026504,
                            33.306028
                        ],
                        [
                            -112.026929,
                            33.306688
                        ],
                        [
                            -112.027289,
                            33.307426
                        ],
                        [
                            -112.0274,
                            33.307806
                        ],
                        [
                            -112.028466,
                            33.307626
                        ],
                        [
                            -112.029264,
                            33.308755
                        ],
                        [
                            -112.03028,
                            33.307686
                        ],
                        [
                            -112.030787,
                            33.307419
                        ],
                        [
                            -112.031474,
                            33.307334
                        ],
                        [
                            -112.032648,
                            33.30777
                        ],
                        [
                            -112.033417,
                            33.308067
                        ],
                        [
                            -112.034398,
                            33.308034
                        ],
                        [
                            -112.036122,
                            33.307315
                        ],
                        [
                            -112.037395,
                            33.307022
                        ],
                        [
                            -112.037991,
                            33.306866
                        ],
                        [
                            -112.038489,
                            33.306539
                        ],
                        [
                            -112.038832,
                            33.306083
                        ],
                        [
                            -112.040352,
                            33.306087
                        ],
                        [
                            -112.040464,
                            33.304999
                        ]
                    ]
                ]
            },
            "bbox": [
                -112.040464,
                33.30474,
                -112.026504,
                33.308755
            ]
        },
        {
            "type": "Feature",
            "properties": {
                "name": "Zone_11",
                "fill": "rgba(73, 130, 47, 1)"
            },
            "geometry": {
                "type": "Polygon",
                "coordinates": [
                    [
                        [
                            -112.042538,
                            33.314947
                        ],
                        [
                            -112.042745,
                            33.312841
                        ],
                        [
                            -112.041991,
                            33.310674
                        ],
                        [
                            -112.041161,
                            33.308405
                        ],
                        [
                            -112.040651,
                            33.307282
                        ],
                        [
                            -112.040497,
                            33.306688
                        ],
                        [
                            -112.040314,
                            33.306175
                        ],
                        [
                            -112.03891,
                            33.306153
                        ],
                        [
                            -112.038326,
                            33.306769
                        ],
                        [
                            -112.038065,
                            33.306965
                        ],
                        [
                            -112.037471,
                            33.30707
                        ],
                        [
                            -112.03605,
                            33.307416
                        ],
                        [
                            -112.034791,
                            33.307897
                        ],
                        [
                            -112.036766,
                            33.309373
                        ],
                        [
                            -112.037481,
                            33.310372
                        ],
                        [
                            -112.038097,
                            33.310887
                        ],
                        [
                            -112.039396,
                            33.311298
                        ],
                        [
                            -112.039761,
                            33.311385
                        ],
                        [
                            -112.040013,
                            33.311551
                        ],
                        [
                            -112.040249,
                            33.311677
                        ],
                        [
                            -112.040523,
                            33.311725
                        ],
                        [
                            -112.040568,
                            33.31451
                        ],
                        [
                            -112.040514,
                            33.315011
                        ],
                        [
                            -112.041491,
                            33.31514
                        ],
                        [
                            -112.042538,
                            33.314947
                        ]
                    ]
                ]
            },
            "bbox": [
                -112.042745,
                33.306153,
                -112.034791,
                33.31514
            ]
        },
        {
            "type": "Feature",
            "properties": {
                "name": "Zone_12",
                "fill": "rgba(130, 94, 47, 1)"
            },
            "geometry": {
                "type": "Polygon",
                "coordinates": [
                    [
                        [
                            -112.040506,
                            33.314857
                        ],
                        [
                            -112.040514,
                            33.313264
                        ],
                        [
                            -112.040463,
                            33.311744
                        ],
                        [
                            -112.040254,
                            33.311698
                        ],
                        [
                            -112.040088,
                            33.311613
                        ],
                        [
                            -112.039757,
                            33.311402
                        ],
                        [
                            -112.03941,
                            33.311325
                        ],
                        [
                            -112.039055,
                            33.31121
                        ],
                        [
                            -112.037991,
                            33.311153
                        ],
                        [
                            -112.036665,
                            33.309441
                        ],
                        [
                            -112.034787,
                            33.307925
                        ],
                        [
                            -112.034298,
                            33.308092
                        ],
                        [
                            -112.033908,
                            33.308116
                        ],
                        [
                            -112.033269,
                            33.30807
                        ],
                        [
                            -112.032974,
                            33.307932
                        ],
                        [
                            -112.032031,
                            33.307604
                        ],
                        [
                            -112.031558,
                            33.307421
                        ],
                        [
                            -112.031043,
                            33.307444
                        ],
                        [
                            -112.030644,
                            33.307559
                        ],
                        [
                            -112.03029,
                            33.307774
                        ],
                        [
                            -112.029611,
                            33.30846
                        ],
                        [
                            -112.029227,
                            33.308829
                        ],
                        [
                            -112.028517,
                            33.309044
                        ],
                        [
                            -112.027995,
                            33.309052
                        ],
                        [
                            -112.027442,
                            33.308957
                        ],
                        [
                            -112.027311,
                            33.30956
                        ],
                        [
                            -112.029067,
                            33.309989
                        ],
                        [
                            -112.02993,
                            33.310352
                        ],
                        [
                            -112.03031,
                            33.310601
                        ],
                        [
                            -112.030697,
                            33.310984
                        ],
                        [
                            -112.031367,
                            33.311444
                        ],
                        [
                            -112.032171,
                            33.311917
                        ],
                        [
                            -112.033704,
                            33.312817
                        ],
                        [
                            -112.036952,
                            33.31455
                        ],
                        [
                            -112.040506,
                            33.314857
                        ]
                    ]
                ]
            },
            "bbox": [
                -112.040514,
                33.307421,
                -112.027311,
                33.314857
            ]
        }
    ]
}