{
  "type": "FeatureCollection",
  "name": "Rockledge_0700_2026_zones",
  "features": [
    {
      "type": "Feature",
      "geometry": {
        "type": "Polygon",
        "coordinates": [
          [
            [
              -112.01295,
              33.319712
            ],
            [
              -112.014492,
              33.319711
            ],
            [
              -112.014492,
              33.319714
            ],
            [
              -112.014494,
              33.323334
            ],
            [
              -112.014494,
              33.323341
            ],
            [
              -112.014494,
              33.324182
            ],
            [
              -112.014494,
              33.324195
            ],
            [
              -112.014494,
              33.324223
            ],
            [
              -112.014495,
              33.326838
            ],
            [
              -112.022322,
              33.326849
            ],
            [
              -112.02238,
              33.323317
            ],
            [
              -112.031826,
              33.323297
            ],
            [
              -112.031835,
              33.319675
            ],
            [
              -112.031835,
              33.319669
            ],
            [
              -112.036199,
              33.319644
            ],
            [
              -112.036199,
              33.319639
            ],
            [
              -112.036173,
              33.314439
            ],
            [
              -112.034674,
              33.313436
            ],
            [
              -112.034333,
              33.313305
            ],
            [
              -112.034285,
              33.313249
            ],
            [
              -112.033993,
              33.31302
            ],
            [
              -112.033376,
              33.312656
            ],
            [
              -112.032751,
              33.312306
            ],
            [
              -112.032506,
              33.312146
            ],
            [
              -112.032358,
              33.312052
            ],
            [
              -112.032021,
              33.311848
            ],
            [
              -112.031074,
              33.311323
            ],
            [
              -112.030956,
              33.311245
            ],
            [
              -112.030886,
              33.311167
            ],
            [
              -112.030606,
              33.310843
            ],
            [
              -112.030547,
              33.310782
            ],
            [
              -112.030304,
              33.31057
            ],
            [
              -112.030182,
              33.310483
            ],
            [
              -112.030026,
              33.310386
            ],
            [
              -112.029837,
              33.310286
            ],
            [
              -112.029591,
              33.310183
            ],
            [
              -112.029252,
              33.310075
            ],
            [
              -112.028054,
              33.309696
            ],
            [
              -112.028025,
              33.309687
            ],
            [
              -112.028001,
              33.309685
            ],
            [
              -112.027972,
              33.309688
            ],
            [
              -112.027943,
              33.309699
            ],
            [
              -112.027925,
              33.30971
            ],
            [
              -112.027917,
              33.309717
            ],
            [
              -112.027828,
              33.309687
            ],
            [
              -112.02749,
              33.309609
            ],
            [
              -112.027302,
              33.309562
            ],
            [
              -112.027341,
              33.309429
            ],
            [
              -112.027377,
              33.309282
            ],
            [
              -112.027406,
              33.309137
            ],
            [
              -112.027435,
              33.308947
            ],
            [
              -112.027907,
              33.309023
            ],
            [
              -112.028168,
              33.309042
            ],
            [
              -112.028416,
              33.309029
            ],
            [
              -112.02866,
              33.308985
            ],
            [
              -112.028904,
              33.308912
            ],
            [
              -112.029089,
              33.308829
            ],
            [
              -112.029215,
              33.308755
            ],
            [
              -112.029181,
              33.308672
            ],
            [
              -112.029025,
              33.308437
            ],
            [
              -112.028862,
              33.308193
            ],
            [
              -112.028724,
              33.307986
            ],
            [
              -112.028598,
              33.307797
            ],
            [
              -112.028471,
              33.307606
            ],
            [
              -112.027841,
              33.307698
            ],
            [
              -112.027729,
              33.307715
            ],
            [
              -112.027381,
              33.30777
            ],
            [
              -112.027335,
              33.307584
            ],
            [
              -112.027257,
              33.307353
            ],
            [
              -112.027228,
              33.30726
            ],
            [
              -112.027131,
              33.307044
            ],
            [
              -112.026993,
              33.306762
            ],
            [
              -112.026876,
              33.306553
            ],
            [
              -112.02668,
              33.306282
            ],
            [
              -112.026461,
              33.306019
            ],
            [
              -112.026256,
              33.3058
            ],
            [
              -112.026084,
              33.305634
            ],
            [
              -112.025917,
              33.30549
            ],
            [
              -112.025696,
              33.305317
            ],
            [
              -112.025541,
              33.305205
            ],
            [
              -112.025283,
              33.305034
            ],
            [
              -112.025079,
              33.304915
            ],
            [
              -112.024838,
              33.304786
            ],
            [
              -112.024566,
              33.304661
            ],
            [
              -112.024329,
              33.304568
            ],
            [
              -112.024082,
              33.304485
            ],
            [
              -112.023783,
              33.304402
            ],
            [
              -112.023471,
              33.304335
            ],
            [
              -112.023184,
              33.304291
            ],
            [
              -112.02294,
              33.304262
            ],
            [
              -112.022772,
              33.304249
            ],
            [
              -112.022478,
              33.30424
            ],
            [
              -112.022192,
              33.304242
            ],
            [
              -112.021945,
              33.304255
            ],
            [
              -112.021703,
              33.304278
            ],
            [
              -112.021266,
              33.304349
            ],
            [
              -112.019561,
              33.30465
            ],
            [
              -112.019335,
              33.304689
            ],
            [
              -112.018596,
              33.304815
            ],
            [
              -112.01794,
              33.304942
            ],
            [
              -112.017675,
              33.304988
            ],
            [
              -112.017054,
              33.30509
            ],
            [
              -112.016692,
              33.305149
            ],
            [
              -112.016516,
              33.305169
            ],
            [
              -112.016337,
              33.305185
            ],
            [
              -112.016087,
              33.305202
            ],
            [
              -112.015903,
              33.305211
            ],
            [
              -112.015647,
              33.305214
            ],
            [
              -112.014493,
              33.305215
            ],
            [
              -112.014493,
              33.305215
            ],
            [
              -112.010177,
              33.305221
            ],
            [
              -112.001563,
              33.30521
            ],
            [
              -111.997265,
              33.305214
            ],
            [
              -111.997267,
              33.305291
            ],
            [
              -111.99727,
              33.305413
            ],
            [
              -111.997278,
              33.30573
            ],
            [
              -111.997288,
              33.30586
            ],
            [
              -111.997349,
              33.306191
            ],
            [
              -111.997419,
              33.306416
            ],
            [
              -111.99756,
              33.306712
            ],
            [
              -111.997717,
              33.306951
            ],
            [
              -111.997857,
              33.307131
            ],
            [
              -111.998056,
              33.307347
            ],
            [
              -111.998199,
              33.307481
            ],
            [
              -111.99846,
              33.307677
            ],
            [
              -111.998704,
              33.30782
            ],
            [
              -111.999056,
              33.30799
            ],
            [
              -111.999235,
              33.308062
            ],
            [
              -111.999463,
              33.308141
            ],
            [
              -111.999708,
              33.308214
            ],
            [
              -112.00001,
              33.308309
            ],
            [
              -112.000651,
              33.308546
            ],
            [
              -112.000932,
              33.308666
            ],
            [
              -112.001377,
              33.308878
            ],
            [
              -112.00155,
              33.308972
            ],
            [
              -112.001734,
              33.309102
            ],
            [
              -112.001916,
              33.309216
            ],
            [
              -112.002354,
              33.30952
            ],
            [
              -112.002697,
              33.309767
            ],
            [
              -112.003344,
              33.310246
            ],
            [
              -112.004364,
              33.311005
            ],
            [
              -112.004848,
              33.311366
            ],
            [
              -112.005023,
              33.311528
            ],
            [
              -112.005199,
              33.311714
            ],
            [
              -112.005325,
              33.311869
            ],
            [
              -112.005417,
              33.311988
            ],
            [
              -112.005572,
              33.312203
            ],
            [
              -112.006252,
              33.313247
            ],
            [
              -112.006293,
              33.31332
            ],
            [
              -112.006399,
              33.313546
            ],
            [
              -112.006472,
              33.313718
            ],
            [
              -112.006589,
              33.31402
            ],
            [
              -112.006651,
              33.314195
            ],
            [
              -112.006699,
              33.314388
            ],
            [
              -112.006729,
              33.314508
            ],
            [
              -112.006772,
              33.314747
            ],
            [
              -112.006798,
              33.315171
            ],
            [
              -112.006778,
              33.31535
            ],
            [
              -112.008886,
              33.315249
            ],
            [
              -112.009132,
              33.315244
            ],
            [
              -112.009464,
              33.315259
            ],
            [
              -112.009835,
              33.315307
            ],
            [
              -112.01008,
              33.315356
            ],
            [
              -112.010385,
              33.315438
            ],
            [
              -112.01059,
              33.315501
            ],
            [
              -112.010839,
              33.315584
            ],
            [
              -112.011044,
              33.315647
            ],
            [
              -112.011366,
              33.315706
            ],
            [
              -112.011609,
              33.315736
            ],
            [
              -112.011895,
              33.315756
            ],
            [
              -112.012221,
              33.315757
            ],
            [
              -112.01259,
              33.315734
            ],
            [
              -112.012887,
              33.3157
            ],
            [
              -112.013268,
              33.315635
            ],
            [
              -112.013689,
              33.315534
            ],
            [
              -112.014009,
              33.315436
            ],
            [
              -112.014338,
              33.315311
            ],
            [
              -112.01446,
              33.315426
            ],
            [
              -112.014493,
              33.315456
            ],
            [
              -112.014653,
              33.315501
            ],
            [
              -112.015501,
              33.316374
            ],
            [
              -112.01547,
              33.316384
            ],
            [
              -112.014493,
              33.316701
            ],
            [
              -112.014493,
              33.316731
            ],
            [
              -112.014492,
              33.3171
            ],
            [
              -112.014487,
              33.3171
            ],
            [
              -112.014345,
              33.317113
            ],
            [
              -112.014193,
              33.317239
            ],
            [
              -112.014073,
              33.317338
            ],
            [
              -112.013666,
              33.317291
            ],
            [
              -112.013451,
              33.31731
            ],
            [
              -112.013377,
              33.317255
            ],
            [
              -112.013192,
              33.316942
            ],
            [
              -112.013056,
              33.316958
            ],
            [
              -112.013127,
              33.317068
            ],
            [
              -112.012954,
              33.317161
            ],
            [
              -112.01295,
              33.319712
            ]
          ]
        ]
      },
      "properties": {
        "OBJECTID": 205,
        "BdVal": "0700",
        "PctNum": 700,
        "BdName": "ROCKLEDGE",
        "DistrictFullName": "Rockledge Voting Precinct",
        "layer": "official_precinct_2026",
        "name": "Rockledge Voting Precinct 0700 (2026)",
        "effective": "2026-01-02",
        "source": "Maricopa County Voting Precincts (2026-)",
        "stroke": "#be123c",
        "stroke-width": 3,
        "fill": "rgba(29, 189, 224, 1)",
        "fill-opacity": 0.08
      },
      "id": 205,
      "bbox": [
        -112.036199,
        33.30424,
        -111.997265,
        33.326849
      ]
    },
    {
      "type": "Feature",
      "geometry": {
        "type": "Polygon",
        "coordinates": [
          [
            [
              -112.032028,
              33.311852
            ],
            [
              -112.031694,
              33.312314
            ],
            [
              -112.031423,
              33.312807
            ],
            [
              -112.031112,
              33.313791
            ],
            [
              -112.030875,
              33.314203
            ],
            [
              -112.031308,
              33.314495
            ],
            [
              -112.03186,
              33.314857
            ],
            [
              -112.032316,
              33.315443
            ],
            [
              -112.032852,
              33.316378
            ],
            [
              -112.033324,
              33.31672
            ],
            [
              -112.033836,
              33.316753
            ],
            [
              -112.034175,
              33.316384
            ],
            [
              -112.035162,
              33.316444
            ],
            [
              -112.035555,
              33.315219
            ],
            [
              -112.035503,
              33.314862
            ],
            [
              -112.034703,
              33.314293
            ],
            [
              -112.03407,
              33.313816
            ],
            [
              -112.03377,
              33.313649
            ],
            [
              -112.033607,
              33.313477
            ],
            [
              -112.033631,
              33.313309
            ],
            [
              -112.033884,
              33.313313
            ],
            [
              -112.034289,
              33.313296
            ],
            [
              -112.033882,
              33.312956
            ],
            [
              -112.032028,
              33.311852
            ]
          ]
        ]
      },
      "properties": {
        "fill": "#300200",
        "OBJECTID": "Zone_1",
        "Name": "Zone_1",
        "name": "Zone_1"
      },
      "bbox": [
        -112.035555,
        33.311852,
        -112.030875,
        33.316753
      ]
    },
    {
      "type": "Feature",
      "geometry": {
        "type": "Polygon",
        "coordinates": [
          [
            [
              -112.031124,
              33.313783
            ],
            [
              -112.031442,
              33.312778
            ],
            [
              -112.031559,
              33.312531
            ],
            [
              -112.031704,
              33.312287
            ],
            [
              -112.032013,
              33.311837
            ],
            [
              -112.031231,
              33.3114
            ],
            [
              -112.031037,
              33.311286
            ],
            [
              -112.030856,
              33.311139
            ],
            [
              -112.030565,
              33.310785
            ],
            [
              -112.030218,
              33.310476
            ],
            [
              -112.02985,
              33.310277
            ],
            [
              -112.029045,
              33.310013
            ],
            [
              -112.028147,
              33.309699
            ],
            [
              -112.027904,
              33.30971
            ],
            [
              -112.027725,
              33.309664
            ],
            [
              -112.027323,
              33.309565
            ],
            [
              -112.027075,
              33.310353
            ],
            [
              -112.026808,
              33.310732
            ],
            [
              -112.026568,
              33.310986
            ],
            [
              -112.027576,
              33.311655
            ],
            [
              -112.027843,
              33.311869
            ],
            [
              -112.028099,
              33.312092
            ],
            [
              -112.028317,
              33.312323
            ],
            [
              -112.028488,
              33.312605
            ],
            [
              -112.028776,
              33.312966
            ],
            [
              -112.029048,
              33.313457
            ],
            [
              -112.029396,
              33.314434
            ],
            [
              -112.0308,
              33.3143
            ],
            [
              -112.031124,
              33.313783
            ]
          ]
        ]
      },
      "properties": {
        "Name": "Zone_2",
        "fill": "rgba(47, 130, 70, 1)",
        "name": "Zone_2"
      },
      "bbox": [
        -112.032013,
        33.309565,
        -112.026568,
        33.314434
      ]
    },
    {
      "type": "Feature",
      "geometry": {
        "type": "Polygon",
        "coordinates": [
          [
            [
              -112.029396,
              33.314409
            ],
            [
              -112.029217,
              33.313878
            ],
            [
              -112.029026,
              33.313412
            ],
            [
              -112.028475,
              33.312549
            ],
            [
              -112.028066,
              33.312092
            ],
            [
              -112.027607,
              33.311706
            ],
            [
              -112.026524,
              33.311043
            ],
            [
              -112.026175,
              33.311398
            ],
            [
              -112.025793,
              33.311735
            ],
            [
              -112.025338,
              33.312019
            ],
            [
              -112.024857,
              33.312255
            ],
            [
              -112.024319,
              33.312461
            ],
            [
              -112.023758,
              33.312627
            ],
            [
              -112.023194,
              33.312718
            ],
            [
              -112.022601,
              33.312708
            ],
            [
              -112.024353,
              33.315127
            ],
            [
              -112.025662,
              33.315759
            ],
            [
              -112.025684,
              33.316053
            ],
            [
              -112.026155,
              33.316243
            ],
            [
              -112.026594,
              33.316039
            ],
            [
              -112.026994,
              33.316254
            ],
            [
              -112.027543,
              33.316241
            ],
            [
              -112.028112,
              33.316039
            ],
            [
              -112.028453,
              33.315928
            ],
            [
              -112.028833,
              33.316012
            ],
            [
              -112.029065,
              33.316177
            ],
            [
              -112.029185,
              33.316528
            ],
            [
              -112.029093,
              33.316799
            ],
            [
              -112.029401,
              33.316994
            ],
            [
              -112.030207,
              33.317096
            ],
            [
              -112.0296,
              33.316109
            ],
            [
              -112.028758,
              33.315153
            ],
            [
              -112.029396,
              33.314409
            ]
          ]
        ]
      },
      "properties": {
        "OBJECTID": "Zone_3",
        "fill": "rgba(126, 130, 47, 1)",
        "Name": "Zone_3",
        "name": "Zone_3"
      },
      "bbox": [
        -112.030207,
        33.311043,
        -112.022601,
        33.317096
      ]
    },
    {
      "type": "Feature",
      "geometry": {
        "type": "Polygon",
        "coordinates": [
          [
            [
              -112.029167,
              33.316503
            ],
            [
              -112.02886,
              33.316033
            ],
            [
              -112.028548,
              33.315946
            ],
            [
              -112.028315,
              33.315999
            ],
            [
              -112.027445,
              33.316251
            ],
            [
              -112.026998,
              33.316251
            ],
            [
              -112.026598,
              33.316062
            ],
            [
              -112.026209,
              33.316212
            ],
            [
              -112.025873,
              33.316406
            ],
            [
              -112.025943,
              33.316963
            ],
            [
              -112.025467,
              33.317753
            ],
            [
              -112.026215,
              33.318892
            ],
            [
              -112.027085,
              33.319348
            ],
            [
              -112.027918,
              33.319347
            ],
            [
              -112.028325,
              33.319482
            ],
            [
              -112.028634,
              33.319397
            ],
            [
              -112.028762,
              33.319136
            ],
            [
              -112.028709,
              33.318837
            ],
            [
              -112.028077,
              33.318109
            ],
            [
              -112.027645,
              33.317899
            ],
            [
              -112.027465,
              33.317427
            ],
            [
              -112.027676,
              33.316915
            ],
            [
              -112.028108,
              33.316705
            ],
            [
              -112.028681,
              33.316653
            ],
            [
              -112.029167,
              33.316503
            ]
          ]
        ]
      },
      "properties": {
        "Name": "Zone_4",
        "name": "Zone_4"
      },
      "bbox": [
        -112.029167,
        33.315946,
        -112.025467,
        33.319482
      ]
    },
    {
      "type": "Feature",
      "geometry": {
        "type": "Polygon",
        "coordinates": [
          [
            [
              -112.016881,
              33.31386
            ],
            [
              -112.015518,
              33.315277
            ],
            [
              -112.019337,
              33.316589
            ],
            [
              -112.021929,
              33.317219
            ],
            [
              -112.022354,
              33.319086
            ],
            [
              -112.021228,
              33.320202
            ],
            [
              -112.02264,
              33.320906
            ],
            [
              -112.024383,
              33.321058
            ],
            [
              -112.031373,
              33.323311
            ],
            [
              -112.030757,
              33.320754
            ],
            [
              -112.027751,
              33.319922
            ],
            [
              -112.02645,
              33.319274
            ],
            [
              -112.026044,
              33.319035
            ],
            [
              -112.025818,
              33.318633
            ],
            [
              -112.025502,
              33.318167
            ],
            [
              -112.023971,
              33.31594
            ],
            [
              -112.021189,
              33.314994
            ],
            [
              -112.019755,
              33.314887
            ],
            [
              -112.018958,
              33.314914
            ],
            [
              -112.018469,
              33.314612
            ],
            [
              -112.016881,
              33.31386
            ]
          ]
        ]
      },
      "properties": {
        "Name": "Zone_5",
        "name": "Zone_5"
      },
      "bbox": [
        -112.031373,
        33.31386,
        -112.015518,
        33.323311
      ]
    },
    {
      "type": "Feature",
      "geometry": {
        "type": "Polygon",
        "coordinates": [
          [
            [
              -112.0145,
              33.323674
            ],
            [
              -112.016785,
              33.323609
            ],
            [
              -112.015963,
              33.322219
            ],
            [
              -112.015425,
              33.320597
            ],
            [
              -112.016237,
              33.32035
            ],
            [
              -112.016402,
              33.320735
            ],
            [
              -112.017477,
              33.321367
            ],
            [
              -112.018091,
              33.320515
            ],
            [
              -112.019045,
              33.320303
            ],
            [
              -112.02034,
              33.31968
            ],
            [
              -112.021733,
              33.319552
            ],
            [
              -112.021602,
              33.318863
            ],
            [
              -112.020647,
              33.318527
            ],
            [
              -112.019329,
              33.317719
            ],
            [
              -112.017776,
              33.317545
            ],
            [
              -112.017334,
              33.317409
            ],
            [
              -112.017024,
              33.317057
            ],
            [
              -112.01626,
              33.3166
            ],
            [
              -112.015791,
              33.31677
            ],
            [
              -112.015265,
              33.316851
            ],
            [
              -112.01457,
              33.316984
            ],
            [
              -112.014408,
              33.317032
            ],
            [
              -112.014107,
              33.31721
            ],
            [
              -112.01351,
              33.317247
            ],
            [
              -112.013086,
              33.316973
            ],
            [
              -112.012974,
              33.319705
            ],
            [
              -112.014449,
              33.319736
            ],
            [
              -112.014487,
              33.320496
            ],
            [
              -112.014504,
              33.321816
            ],
            [
              -112.0145,
              33.323674
            ]
          ]
        ]
      },
      "properties": {
        "fill": "rgba(47, 130, 65, 1)",
        "Name": "Zone_6",
        "name": "Zone_6"
      },
      "bbox": [
        -112.021733,
        33.3166,
        -112.012974,
        33.323674
      ]
    },
    {
      "type": "Feature",
      "geometry": {
        "type": "Polygon",
        "coordinates": [
          [
            [
              -112.026349,
              33.309144
            ],
            [
              -112.027432,
              33.309173
            ],
            [
              -112.027448,
              33.308954
            ],
            [
              -112.027477,
              33.308231
            ],
            [
              -112.027346,
              33.30765
            ],
            [
              -112.027134,
              33.30706
            ],
            [
              -112.026733,
              33.306359
            ],
            [
              -112.025865,
              33.305429
            ],
            [
              -112.025014,
              33.30487
            ],
            [
              -112.024458,
              33.304617
            ],
            [
              -112.023864,
              33.304412
            ],
            [
              -112.022859,
              33.304308
            ],
            [
              -112.022278,
              33.304298
            ],
            [
              -112.022187,
              33.3046
            ],
            [
              -112.022062,
              33.305085
            ],
            [
              -112.02205,
              33.305356
            ],
            [
              -112.022112,
              33.305727
            ],
            [
              -112.022091,
              33.30597
            ],
            [
              -112.021962,
              33.306168
            ],
            [
              -112.021751,
              33.306456
            ],
            [
              -112.021697,
              33.306765
            ],
            [
              -112.021707,
              33.306996
            ],
            [
              -112.021759,
              33.307289
            ],
            [
              -112.021823,
              33.307669
            ],
            [
              -112.021747,
              33.307885
            ],
            [
              -112.021584,
              33.308152
            ],
            [
              -112.02144,
              33.308321
            ],
            [
              -112.021193,
              33.308554
            ],
            [
              -112.022133,
              33.308894
            ],
            [
              -112.023673,
              33.309437
            ],
            [
              -112.024031,
              33.309503
            ],
            [
              -112.024843,
              33.309525
            ],
            [
              -112.024839,
              33.309163
            ],
            [
              -112.024973,
              33.309153
            ],
            [
              -112.025102,
              33.309141
            ],
            [
              -112.026349,
              33.309144
            ]
          ]
        ]
      },
      "properties": {
        "Name": "Zone_7",
        "name": "Zone_7"
      },
      "bbox": [
        -112.027477,
        33.304298,
        -112.021193,
        33.309525
      ]
    },
    {
      "type": "Feature",
      "geometry": {
        "type": "Polygon",
        "coordinates": [
          [
            [
              -112.02653,
              33.309129
            ],
            [
              -112.025436,
              33.309157
            ],
            [
              -112.024845,
              33.30916
            ],
            [
              -112.024845,
              33.309514
            ],
            [
              -112.024395,
              33.309517
            ],
            [
              -112.02344,
              33.309375
            ],
            [
              -112.021202,
              33.308571
            ],
            [
              -112.020788,
              33.308973
            ],
            [
              -112.020585,
              33.309446
            ],
            [
              -112.020645,
              33.309891
            ],
            [
              -112.020745,
              33.310294
            ],
            [
              -112.021066,
              33.310675
            ],
            [
              -112.021479,
              33.311042
            ],
            [
              -112.021927,
              33.311388
            ],
            [
              -112.022299,
              33.311797
            ],
            [
              -112.022569,
              33.312256
            ],
            [
              -112.022603,
              33.312673
            ],
            [
              -112.022839,
              33.312701
            ],
            [
              -112.024039,
              33.312553
            ],
            [
              -112.025002,
              33.312193
            ],
            [
              -112.026227,
              33.311374
            ],
            [
              -112.026502,
              33.310947
            ],
            [
              -112.026702,
              33.310702
            ],
            [
              -112.026894,
              33.310408
            ],
            [
              -112.027134,
              33.309891
            ],
            [
              -112.027343,
              33.309176
            ],
            [
              -112.02653,
              33.309129
            ]
          ]
        ]
      },
      "properties": {
        "name": "Zone_8"
      },
      "bbox": [
        -112.027343,
        33.308571,
        -112.020585,
        33.312701
      ]
    },
    {
      "type": "Feature",
      "geometry": {
        "type": "Polygon",
        "coordinates": [
          [
            [
              -112.021531,
              33.312654
            ],
            [
              -112.021783,
              33.311597
            ],
            [
              -112.021045,
              33.310775
            ],
            [
              -112.020565,
              33.310246
            ],
            [
              -112.020378,
              33.30958
            ],
            [
              -112.019768,
              33.309463
            ],
            [
              -112.018433,
              33.309962
            ],
            [
              -112.017355,
              33.311108
            ],
            [
              -112.01732,
              33.31191
            ],
            [
              -112.017519,
              33.313193
            ],
            [
              -112.0178,
              33.312987
            ],
            [
              -112.018328,
              33.312772
            ],
            [
              -112.019875,
              33.312616
            ],
            [
              -112.021531,
              33.312654
            ]
          ]
        ]
      },
      "properties": {
        "Name": "Zone_9",
        "name": "Zone_9"
      },
      "bbox": [
        -112.021783,
        33.309463,
        -112.01732,
        33.313193
      ]
    },
    {
      "type": "Feature",
      "geometry": {
        "type": "Polygon",
        "coordinates": [
          [
            [
              -112.020355,
              33.309308
            ],
            [
              -112.020742,
              33.308632
            ],
            [
              -112.021199,
              33.308201
            ],
            [
              -112.02155,
              33.307829
            ],
            [
              -112.021574,
              33.307487
            ],
            [
              -112.021597,
              33.307115
            ],
            [
              -112.021621,
              33.306674
            ],
            [
              -112.02196,
              33.305881
            ],
            [
              -112.021949,
              33.30545
            ],
            [
              -112.021656,
              33.30499
            ],
            [
              -112.021211,
              33.304697
            ],
            [
              -112.020836,
              33.30452
            ],
            [
              -112.019653,
              33.304706
            ],
            [
              -112.016396,
              33.305343
            ],
            [
              -112.015131,
              33.306302
            ],
            [
              -112.015904,
              33.307731
            ],
            [
              -112.017567,
              33.308387
            ],
            [
              -112.017802,
              33.309592
            ],
            [
              -112.018997,
              33.309571
            ],
            [
              -112.019595,
              33.309023
            ],
            [
              -112.020355,
              33.309308
            ]
          ]
        ]
      },
      "properties": {
        "Name": "Zone_10",
        "name": "Zone_10"
      },
      "bbox": [
        -112.02196,
        33.30452,
        -112.015131,
        33.309592
      ]
    },
    {
      "type": "Feature",
      "geometry": {
        "type": "Polygon",
        "coordinates": [
          [
            [
              -112.016391,
              33.311988
            ],
            [
              -112.01709,
              33.311903
            ],
            [
              -112.017253,
              33.311293
            ],
            [
              -112.016944,
              33.309968
            ],
            [
              -112.015606,
              33.31008
            ],
            [
              -112.014247,
              33.310734
            ],
            [
              -112.012765,
              33.311706
            ],
            [
              -112.011365,
              33.312283
            ],
            [
              -112.010932,
              33.311732
            ],
            [
              -112.009913,
              33.311242
            ],
            [
              -112.00838,
              33.311371
            ],
            [
              -112.005545,
              33.312183
            ],
            [
              -112.006875,
              33.315321
            ],
            [
              -112.012347,
              33.315716
            ],
            [
              -112.01316,
              33.315667
            ],
            [
              -112.013881,
              33.315443
            ],
            [
              -112.015326,
              33.314854
            ],
            [
              -112.016853,
              33.313579
            ],
            [
              -112.016302,
              33.312847
            ],
            [
              -112.016391,
              33.311988
            ]
          ]
        ]
      },
      "properties": {
        "Name": "Zone_11",
        "name": "Zone_11",
        "fill": "rgba(130, 47, 62, 1)"
      },
      "bbox": [
        -112.017253,
        33.309968,
        -112.005545,
        33.315716
      ]
    },
    {
      "type": "Feature",
      "geometry": {
        "type": "Polygon",
        "coordinates": [
          [
            [
              -112.013391,
              33.307998
            ],
            [
              -112.014165,
              33.307543
            ],
            [
              -112.014008,
              33.306522
            ],
            [
              -112.014523,
              33.30524
            ],
            [
              -112.010484,
              33.305232
            ],
            [
              -112.010479,
              33.305545
            ],
            [
              -112.010465,
              33.305692
            ],
            [
              -112.010618,
              33.30577
            ],
            [
              -112.011147,
              33.305888
            ],
            [
              -112.012072,
              33.306311
            ],
            [
              -112.012909,
              33.307105
            ],
            [
              -112.012802,
              33.307541
            ],
            [
              -112.012646,
              33.307744
            ],
            [
              -112.012483,
              33.307902
            ],
            [
              -112.012058,
              33.308186
            ],
            [
              -112.012947,
              33.308591
            ],
            [
              -112.013391,
              33.307998
            ]
          ]
        ]
      },
      "properties": {
        "name": "Zone_12"
      },
      "bbox": [
        -112.014523,
        33.305232,
        -112.010465,
        33.308591
      ]
    },
    {
      "type": "Feature",
      "geometry": {
        "type": "Polygon",
        "coordinates": [
          [
            [
              -112.010462,
              33.30524
            ],
            [
              -112.003439,
              33.305212
            ],
            [
              -111.997253,
              33.305203
            ],
            [
              -111.997264,
              33.305472
            ],
            [
              -111.997307,
              33.305985
            ],
            [
              -111.997458,
              33.306551
            ],
            [
              -111.99778,
              33.307037
            ],
            [
              -111.998301,
              33.307529
            ],
            [
              -111.998688,
              33.307817
            ],
            [
              -111.999215,
              33.308042
            ],
            [
              -111.999947,
              33.308266
            ],
            [
              -112.001066,
              33.308707
            ],
            [
              -112.001743,
              33.309111
            ],
            [
              -112.002464,
              33.309579
            ],
            [
              -112.003513,
              33.310349
            ],
            [
              -112.003998,
              33.309342
            ],
            [
              -112.004407,
              33.309028
            ],
            [
              -112.004923,
              33.308983
            ],
            [
              -112.006287,
              33.308991
            ],
            [
              -112.006796,
              33.309092
            ],
            [
              -112.007225,
              33.309243
            ],
            [
              -112.00756,
              33.309247
            ],
            [
              -112.0077,
              33.30947
            ],
            [
              -112.008216,
              33.30963
            ],
            [
              -112.008694,
              33.309524
            ],
            [
              -112.00898,
              33.309167
            ],
            [
              -112.008816,
              33.308567
            ],
            [
              -112.007988,
              33.308153
            ],
            [
              -112.007837,
              33.307587
            ],
            [
              -112.008171,
              33.307299
            ],
            [
              -112.009171,
              33.306643
            ],
            [
              -112.009945,
              33.306587
            ],
            [
              -112.010098,
              33.306205
            ],
            [
              -112.010055,
              33.305834
            ],
            [
              -112.010451,
              33.305782
            ],
            [
              -112.010462,
              33.30524
            ]
          ]
        ]
      },
      "properties": {
        "name": "Zone_13"
      },
      "bbox": [
        -112.010462,
        33.305203,
        -111.997253,
        33.310349
      ]
    }
  ]
}
