{
    "type": "FeatureCollection",
    "features": [
        {
            "type": "Feature",
            "geometry": {
                "type": "Polygon",
                "coordinates": [
                    [
                        [
                            -112.082091,
                            33.306741
                        ],
                        [
                            -112.082217,
                            33.306937
                        ],
                        [
                            -112.082325,
                            33.307128
                        ],
                        [
                            -112.082402,
                            33.307346
                        ],
                        [
                            -112.082455,
                            33.307532
                        ],
                        [
                            -112.082478,
                            33.307723
                        ],
                        [
                            -112.082493,
                            33.307907
                        ],
                        [
                            -112.082473,
                            33.308036
                        ],
                        [
                            -112.082456,
                            33.308193
                        ],
                        [
                            -112.082398,
                            33.308395
                        ],
                        [
                            -112.083615,
                            33.308396
                        ],
                        [
                            -112.083614,
                            33.306621
                        ],
                        [
                            -112.083613,
                            33.305144
                        ],
                        [
                            -112.083613,
                            33.305144
                        ],
                        [
                            -112.083614,
                            33.305144
                        ],
                        [
                            -112.087635,
                            33.305128
                        ],
                        [
                            -112.091966,
                            33.305113
                        ],
                        [
                            -112.092921,
                            33.30511
                        ],
                        [
                            -112.097039,
                            33.305084
                        ],
                        [
                            -112.100444,
                            33.305064
                        ],
                        [
                            -112.100446,
                            33.305064
                        ],
                        [
                            -112.100465,
                            33.290559
                        ],
                        [
                            -112.100465,
                            33.290555
                        ],
                        [
                            -112.099026,
                            33.290558
                        ],
                        [
                            -112.098272,
                            33.29056
                        ],
                        [
                            -112.097081,
                            33.290563
                        ],
                        [
                            -112.083596,
                            33.290594
                        ],
                        [
                            -112.083596,
                            33.290599
                        ],
                        [
                            -112.083593,
                            33.291145
                        ],
                        [
                            -112.083589,
                            33.291708
                        ],
                        [
                            -112.083566,
                            33.292194
                        ],
                        [
                            -112.083594,
                            33.292397
                        ],
                        [
                            -112.083596,
                            33.292413
                        ],
                        [
                            -112.083659,
                            33.292567
                        ],
                        [
                            -112.083696,
                            33.292646
                        ],
                        [
                            -112.083602,
                            33.292679
                        ],
                        [
                            -112.083418,
                            33.292763
                        ],
                        [
                            -112.083366,
                            33.292786
                        ],
                        [
                            -112.083352,
                            33.292794
                        ],
                        [
                            -112.083152,
                            33.292908
                        ],
                        [
                            -112.083015,
                            33.293003
                        ],
                        [
                            -112.082991,
                            33.29302
                        ],
                        [
                            -112.082912,
                            33.293087
                        ],
                        [
                            -112.082807,
                            33.293177
                        ],
                        [
                            -112.082788,
                            33.293193
                        ],
                        [
                            -112.082714,
                            33.293274
                        ],
                        [
                            -112.08258,
                            33.293422
                        ],
                        [
                            -112.082422,
                            33.293645
                        ],
                        [
                            -112.082002,
                            33.294358
                        ],
                        [
                            -112.081669,
                            33.294972
                        ],
                        [
                            -112.081438,
                            33.295447
                        ],
                        [
                            -112.08128,
                            33.295773
                        ],
                        [
                            -112.081027,
                            33.296369
                        ],
                        [
                            -112.080834,
                            33.296835
                        ],
                        [
                            -112.08078,
                            33.296992
                        ],
                        [
                            -112.080735,
                            33.297152
                        ],
                        [
                            -112.080696,
                            33.297292
                        ],
                        [
                            -112.08068,
                            33.29735
                        ],
                        [
                            -112.08064,
                            33.297576
                        ],
                        [
                            -112.080605,
                            33.297797
                        ],
                        [
                            -112.080614,
                            33.298034
                        ],
                        [
                            -112.080612,
                            33.298403
                        ],
                        [
                            -112.080612,
                            33.298589
                        ],
                        [
                            -112.080608,
                            33.298886
                        ],
                        [
                            -112.080607,
                            33.29892
                        ],
                        [
                            -112.080597,
                            33.298979
                        ],
                        [
                            -112.080564,
                            33.299175
                        ],
                        [
                            -112.080559,
                            33.299206
                        ],
                        [
                            -112.080552,
                            33.299225
                        ],
                        [
                            -112.080517,
                            33.299329
                        ],
                        [
                            -112.080455,
                            33.29951
                        ],
                        [
                            -112.080419,
                            33.29958
                        ],
                        [
                            -112.080352,
                            33.29971
                        ],
                        [
                            -112.080348,
                            33.299717
                        ],
                        [
                            -112.080334,
                            33.299738
                        ],
                        [
                            -112.080279,
                            33.299819
                        ],
                        [
                            -112.08025,
                            33.299862
                        ],
                        [
                            -112.079945,
                            33.300212
                        ],
                        [
                            -112.079942,
                            33.300215
                        ],
                        [
                            -112.079774,
                            33.300403
                        ],
                        [
                            -112.079697,
                            33.300489
                        ],
                        [
                            -112.079669,
                            33.300518
                        ],
                        [
                            -112.079598,
                            33.300591
                        ],
                        [
                            -112.079439,
                            33.300755
                        ],
                        [
                            -112.079377,
                            33.300813
                        ],
                        [
                            -112.079151,
                            33.301022
                        ],
                        [
                            -112.079091,
                            33.301076
                        ],
                        [
                            -112.079073,
                            33.301092
                        ],
                        [
                            -112.079007,
                            33.301145
                        ],
                        [
                            -112.078719,
                            33.301382
                        ],
                        [
                            -112.078412,
                            33.301609
                        ],
                        [
                            -112.078143,
                            33.30179
                        ],
                        [
                            -112.077923,
                            33.301926
                        ],
                        [
                            -112.077639,
                            33.302095
                        ],
                        [
                            -112.077317,
                            33.302288
                        ],
                        [
                            -112.077277,
                            33.302317
                        ],
                        [
                            -112.077132,
                            33.302419
                        ],
                        [
                            -112.076998,
                            33.302514
                        ],
                        [
                            -112.076881,
                            33.302622
                        ],
                        [
                            -112.076813,
                            33.302684
                        ],
                        [
                            -112.076773,
                            33.302721
                        ],
                        [
                            -112.076723,
                            33.302785
                        ],
                        [
                            -112.076634,
                            33.302895
                        ],
                        [
                            -112.076593,
                            33.302947
                        ],
                        [
                            -112.076526,
                            33.303054
                        ],
                        [
                            -112.076456,
                            33.303164
                        ],
                        [
                            -112.076437,
                            33.303195
                        ],
                        [
                            -112.076394,
                            33.303276
                        ],
                        [
                            -112.076366,
                            33.303327
                        ],
                        [
                            -112.076341,
                            33.30337
                        ],
                        [
                            -112.075872,
                            33.304163
                        ],
                        [
                            -112.075894,
                            33.304172
                        ],
                        [
                            -112.076118,
                            33.304263
                        ],
                        [
                            -112.076432,
                            33.304407
                        ],
                        [
                            -112.076847,
                            33.304596
                        ],
                        [
                            -112.07711,
                            33.304716
                        ],
                        [
                            -112.077411,
                            33.304856
                        ],
                        [
                            -112.077639,
                            33.304945
                        ],
                        [
                            -112.077946,
                            33.305042
                        ],
                        [
                            -112.07817,
                            33.305097
                        ],
                        [
                            -112.078359,
                            33.305132
                        ],
                        [
                            -112.078524,
                            33.305155
                        ],
                        [
                            -112.078702,
                            33.305173
                        ],
                        [
                            -112.078851,
                            33.305186
                        ],
                        [
                            -112.079154,
                            33.305187
                        ],
                        [
                            -112.079403,
                            33.305174
                        ],
                        [
                            -112.0796,
                            33.305154
                        ],
                        [
                            -112.079802,
                            33.305121
                        ],
                        [
                            -112.080011,
                            33.305079
                        ],
                        [
                            -112.080202,
                            33.305031
                        ],
                        [
                            -112.080383,
                            33.304974
                        ],
                        [
                            -112.080635,
                            33.304881
                        ],
                        [
                            -112.080801,
                            33.304821
                        ],
                        [
                            -112.082091,
                            33.306741
                        ]
                    ]
                ]
            },
            "properties": {
                "OBJECTID": 2,
                "BdVal": "0832",
                "PctNum": 832,
                "BdName": "THUNDERHILL",
                "DistrictFullName": "Thunderhill Voting Precinct",
                "layer": "official_precinct_2026",
                "name": "Thunderhill Voting Precinct 0832 (2026)",
                "effective": "2026-01-02",
                "source": "Maricopa County Voting Precincts (2026-)",
                "stroke": "#1d4ed8",
                "stroke-width": 3,
                "fill": "#3b82f6",
                "fill-opacity": 0.12
            },
            "id": 2,
            "bbox": [
                -112.100465,
                33.290555,
                -112.075872,
                33.308396
            ]
        },
        {
            "type": "Feature",
            "geometry": {
                "type": "Polygon",
                "coordinates": [
                    [
                        [
                            -112.100481,
                            33.305083
                        ],
                        [
                            -112.100451,
                            33.303052
                        ],
                        [
                            -112.098052,
                            33.303027
                        ],
                        [
                            -112.096254,
                            33.302785
                        ],
                        [
                            -112.095378,
                            33.302575
                        ],
                        [
                            -112.094388,
                            33.302403
                        ],
                        [
                            -112.093056,
                            33.302301
                        ],
                        [
                            -112.092159,
                            33.302304
                        ],
                        [
                            -112.092166,
                            33.302894
                        ],
                        [
                            -112.092226,
                            33.303088
                        ],
                        [
                            -112.092346,
                            33.303286
                        ],
                        [
                            -112.092426,
                            33.303506
                        ],
                        [
                            -112.092429,
                            33.30377
                        ],
                        [
                            -112.092437,
                            33.30433
                        ],
                        [
                            -112.091965,
                            33.304347
                        ],
                        [
                            -112.091979,
                            33.305115
                        ],
                        [
                            -112.100481,
                            33.305083
                        ]
                    ]
                ]
            },
            "properties": {
                "name": "Zone_1"
            },
            "bbox": [
                -112.100481,
                33.302301,
                -112.091965,
                33.305115
            ]
        },
        {
            "type": "Feature",
            "geometry": {
                "type": "Polygon",
                "coordinates": [
                    [
                        [
                            -112.091986,
                            33.305115
                        ],
                        [
                            -112.091965,
                            33.304344
                        ],
                        [
                            -112.092433,
                            33.30433
                        ],
                        [
                            -112.092426,
                            33.303659
                        ],
                        [
                            -112.092334,
                            33.303298
                        ],
                        [
                            -112.092198,
                            33.302962
                        ],
                        [
                            -112.092179,
                            33.302312
                        ],
                        [
                            -112.090671,
                            33.302433
                        ],
                        [
                            -112.089262,
                            33.302701
                        ],
                        [
                            -112.087682,
                            33.303074
                        ],
                        [
                            -112.086354,
                            33.30317
                        ],
                        [
                            -112.084889,
                            33.303256
                        ],
                        [
                            -112.08411,
                            33.30338
                        ],
                        [
                            -112.0834,
                            33.303629
                        ],
                        [
                            -112.080824,
                            33.304815
                        ],
                        [
                            -112.081931,
                            33.306507
                        ],
                        [
                            -112.082204,
                            33.306926
                        ],
                        [
                            -112.082419,
                            33.307383
                        ],
                        [
                            -112.082505,
                            33.307871
                        ],
                        [
                            -112.082438,
                            33.308407
                        ],
                        [
                            -112.083618,
                            33.308385
                        ],
                        [
                            -112.083606,
                            33.307016
                        ],
                        [
                            -112.083631,
                            33.30515
                        ],
                        [
                            -112.087833,
                            33.305112
                        ],
                        [
                            -112.091986,
                            33.305115
                        ]
                    ]
                ]
            },
            "properties": {
                "name": "Zone_2",
                "fill": "rgba(58, 130, 47, 1)"
            },
            "bbox": [
                -112.092433,
                33.302312,
                -112.080824,
                33.308407
            ]
        },
        {
            "type": "Feature",
            "geometry": {
                "type": "Polygon",
                "coordinates": [
                    [
                        [
                            -112.100497,
                            33.303077
                        ],
                        [
                            -112.100437,
                            33.299648
                        ],
                        [
                            -112.100232,
                            33.299593
                        ],
                        [
                            -112.099563,
                            33.299319
                        ],
                        [
                            -112.098495,
                            33.298872
                        ],
                        [
                            -112.097756,
                            33.29857
                        ],
                        [
                            -112.096851,
                            33.29819
                        ],
                        [
                            -112.096524,
                            33.298075
                        ],
                        [
                            -112.096152,
                            33.298481
                        ],
                        [
                            -112.09583,
                            33.298804
                        ],
                        [
                            -112.095496,
                            33.299293
                        ],
                        [
                            -112.095283,
                            33.300022
                        ],
                        [
                            -112.09519,
                            33.300502
                        ],
                        [
                            -112.095209,
                            33.300999
                        ],
                        [
                            -112.095218,
                            33.301472
                        ],
                        [
                            -112.095181,
                            33.301983
                        ],
                        [
                            -112.095032,
                            33.302511
                        ],
                        [
                            -112.095348,
                            33.30258
                        ],
                        [
                            -112.096257,
                            33.302774
                        ],
                        [
                            -112.097287,
                            33.302953
                        ],
                        [
                            -112.098261,
                            33.303038
                        ],
                        [
                            -112.099652,
                            33.303046
                        ],
                        [
                            -112.100497,
                            33.303077
                        ]
                    ]
                ]
            },
            "properties": {
                "fill": "rgba(130, 129, 47, 1)",
                "name": "Zone_3"
            },
            "bbox": [
                -112.100497,
                33.298075,
                -112.095032,
                33.303077
            ]
        },
        {
            "type": "Feature",
            "geometry": {
                "type": "Polygon",
                "coordinates": [
                    [
                        [
                            -112.100503,
                            33.299631
                        ],
                        [
                            -112.100466,
                            33.290554
                        ],
                        [
                            -112.096969,
                            33.290566
                        ],
                        [
                            -112.097108,
                            33.292288
                        ],
                        [
                            -112.097145,
                            33.293341
                        ],
                        [
                            -112.097218,
                            33.293853
                        ],
                        [
                            -112.097327,
                            33.294444
                        ],
                        [
                            -112.0974,
                            33.294992
                        ],
                        [
                            -112.097487,
                            33.295515
                        ],
                        [
                            -112.097502,
                            33.295978
                        ],
                        [
                            -112.097458,
                            33.29638
                        ],
                        [
                            -112.097356,
                            33.296709
                        ],
                        [
                            -112.097225,
                            33.297013
                        ],
                        [
                            -112.097116,
                            33.297281
                        ],
                        [
                            -112.096934,
                            33.297549
                        ],
                        [
                            -112.096555,
                            33.29806
                        ],
                        [
                            -112.100503,
                            33.299631
                        ]
                    ]
                ]
            },
            "properties": {
                "name": "Zone_4",
                "fill": "rgba(130, 47, 67, 1)"
            },
            "bbox": [
                -112.100503,
                33.290554,
                -112.096555,
                33.299631
            ]
        },
        {
            "type": "Feature",
            "geometry": {
                "type": "Polygon",
                "coordinates": [
                    [
                        [
                            -112.097377,
                            33.294803
                        ],
                        [
                            -112.097195,
                            33.29377
                        ],
                        [
                            -112.097122,
                            33.292709
                        ],
                        [
                            -112.096965,
                            33.290582
                        ],
                        [
                            -112.091504,
                            33.290594
                        ],
                        [
                            -112.09207,
                            33.29277
                        ],
                        [
                            -112.092789,
                            33.293273
                        ],
                        [
                            -112.094002,
                            33.294179
                        ],
                        [
                            -112.094525,
                            33.294517
                        ],
                        [
                            -112.095244,
                            33.294764
                        ],
                        [
                            -112.095628,
                            33.294849
                        ],
                        [
                            -112.096048,
                            33.29489
                        ],
                        [
                            -112.096875,
                            33.294863
                        ],
                        [
                            -112.097377,
                            33.294803
                        ]
                    ]
                ]
            },
            "properties": {
                "name": "Zone_5"
            },
            "bbox": [
                -112.097377,
                33.290582,
                -112.091504,
                33.29489
            ]
        },
        {
            "type": "Feature",
            "geometry": {
                "type": "Polygon",
                "coordinates": [
                    [
                        [
                            -112.09505,
                            33.302544
                        ],
                        [
                            -112.095188,
                            33.301773
                        ],
                        [
                            -112.095188,
                            33.30072
                        ],
                        [
                            -112.095258,
                            33.300092
                        ],
                        [
                            -112.095398,
                            33.299477
                        ],
                        [
                            -112.095835,
                            33.298805
                        ],
                        [
                            -112.096395,
                            33.298235
                        ],
                        [
                            -112.096692,
                            33.29781
                        ],
                        [
                            -112.097112,
                            33.297284
                        ],
                        [
                            -112.097357,
                            33.296699
                        ],
                        [
                            -112.09748,
                            33.295968
                        ],
                        [
                            -112.097462,
                            33.295369
                        ],
                        [
                            -112.097357,
                            33.294827
                        ],
                        [
                            -112.096815,
                            33.294886
                        ],
                        [
                            -112.09615,
                            33.294857
                        ],
                        [
                            -112.095468,
                            33.294798
                        ],
                        [
                            -112.09496,
                            33.294681
                        ],
                        [
                            -112.094523,
                            33.294535
                        ],
                        [
                            -112.09418,
                            33.294322
                        ],
                        [
                            -112.093531,
                            33.293874
                        ],
                        [
                            -112.093139,
                            33.294326
                        ],
                        [
                            -112.09288,
                            33.294646
                        ],
                        [
                            -112.092651,
                            33.294942
                        ],
                        [
                            -112.092411,
                            33.295306
                        ],
                        [
                            -112.092143,
                            33.295714
                        ],
                        [
                            -112.091908,
                            33.296048
                        ],
                        [
                            -112.092259,
                            33.296428
                        ],
                        [
                            -112.092717,
                            33.297296
                        ],
                        [
                            -112.092982,
                            33.298535
                        ],
                        [
                            -112.092956,
                            33.298963
                        ],
                        [
                            -112.093122,
                            33.299375
                        ],
                        [
                            -112.09357,
                            33.299807
                        ],
                        [
                            -112.094218,
                            33.300312
                        ],
                        [
                            -112.09457,
                            33.301051
                        ],
                        [
                            -112.094519,
                            33.30158
                        ],
                        [
                            -112.09456,
                            33.302433
                        ],
                        [
                            -112.09505,
                            33.302544
                        ]
                    ]
                ]
            },
            "properties": {
                "name": "Zone_6",
                "fill": "rgba(53, 130, 47, 1)"
            },
            "bbox": [
                -112.09748,
                33.293874,
                -112.091908,
                33.302544
            ]
        },
        {
            "type": "Feature",
            "geometry": {
                "type": "Polygon",
                "coordinates": [
                    [
                        [
                            -112.091895,
                            33.296081
                        ],
                        [
                            -112.09226,
                            33.295487
                        ],
                        [
                            -112.092662,
                            33.294933
                        ],
                        [
                            -112.093082,
                            33.294382
                        ],
                        [
                            -112.093526,
                            33.293858
                        ],
                        [
                            -112.092862,
                            33.293356
                        ],
                        [
                            -112.092293,
                            33.292959
                        ],
                        [
                            -112.091628,
                            33.292592
                        ],
                        [
                            -112.090868,
                            33.292324
                        ],
                        [
                            -112.090275,
                            33.292225
                        ],
                        [
                            -112.089491,
                            33.292264
                        ],
                        [
                            -112.087296,
                            33.292373
                        ],
                        [
                            -112.087309,
                            33.292553
                        ],
                        [
                            -112.087345,
                            33.292623
                        ],
                        [
                            -112.087391,
                            33.292708
                        ],
                        [
                            -112.087414,
                            33.292777
                        ],
                        [
                            -112.087442,
                            33.29283
                        ],
                        [
                            -112.087468,
                            33.292921
                        ],
                        [
                            -112.087585,
                            33.293156
                        ],
                        [
                            -112.087695,
                            33.293371
                        ],
                        [
                            -112.087981,
                            33.29375
                        ],
                        [
                            -112.088703,
                            33.294259
                        ],
                        [
                            -112.089636,
                            33.294699
                        ],
                        [
                            -112.089969,
                            33.294987
                        ],
                        [
                            -112.090301,
                            33.295324
                        ],
                        [
                            -112.091061,
                            33.29578
                        ],
                        [
                            -112.091895,
                            33.296081
                        ]
                    ]
                ]
            },
            "properties": {
                "name": "Zone_7",
                "fill": "rgba(130, 47, 127, 1)"
            },
            "bbox": [
                -112.093526,
                33.292225,
                -112.087296,
                33.296081
            ]
        },
        {
            "type": "Feature",
            "geometry": {
                "type": "Polygon",
                "coordinates": [
                    [
                        [
                            -112.09154,
                            33.302306
                        ],
                        [
                            -112.094534,
                            33.302402
                        ],
                        [
                            -112.094426,
                            33.301337
                        ],
                        [
                            -112.094409,
                            33.301005
                        ],
                        [
                            -112.094232,
                            33.300592
                        ],
                        [
                            -112.093861,
                            33.300119
                        ],
                        [
                            -112.092969,
                            33.299418
                        ],
                        [
                            -112.092907,
                            33.29868
                        ],
                        [
                            -112.092077,
                            33.297303
                        ],
                        [
                            -112.091951,
                            33.296973
                        ],
                        [
                            -112.091775,
                            33.296662
                        ],
                        [
                            -112.089294,
                            33.294922
                        ],
                        [
                            -112.087877,
                            33.293752
                        ],
                        [
                            -112.087632,
                            33.293363
                        ],
                        [
                            -112.08749,
                            33.293043
                        ],
                        [
                            -112.087352,
                            33.292698
                        ],
                        [
                            -112.087292,
                            33.292533
                        ],
                        [
                            -112.087293,
                            33.292383
                        ],
                        [
                            -112.085214,
                            33.292472
                        ],
                        [
                            -112.085029,
                            33.294047
                        ],
                        [
                            -112.085235,
                            33.294831
                        ],
                        [
                            -112.08537,
                            33.295272
                        ],
                        [
                            -112.085648,
                            33.295583
                        ],
                        [
                            -112.086195,
                            33.295885
                        ],
                        [
                            -112.086876,
                            33.296132
                        ],
                        [
                            -112.088332,
                            33.296426
                        ],
                        [
                            -112.08869,
                            33.296541
                        ],
                        [
                            -112.088903,
                            33.296778
                        ],
                        [
                            -112.089366,
                            33.297287
                        ],
                        [
                            -112.090502,
                            33.298059
                        ],
                        [
                            -112.091568,
                            33.300432
                        ],
                        [
                            -112.09154,
                            33.302306
                        ]
                    ]
                ]
            },
            "properties": {
                "name": "Zone_8",
                "fill": "rgba(130, 117, 47, 1)"
            },
            "bbox": [
                -112.094534,
                33.292383,
                -112.085029,
                33.302402
            ]
        },
        {
            "type": "Feature",
            "geometry": {
                "type": "Polygon",
                "coordinates": [
                    [
                        [
                            -112.080605,
                            33.297615
                        ],
                        [
                            -112.085326,
                            33.297995
                        ],
                        [
                            -112.085264,
                            33.29522
                        ],
                        [
                            -112.085016,
                            33.293838
                        ],
                        [
                            -112.085198,
                            33.292469
                        ],
                        [
                            -112.084572,
                            33.292492
                        ],
                        [
                            -112.084131,
                            33.292564
                        ],
                        [
                            -112.083691,
                            33.292659
                        ],
                        [
                            -112.083036,
                            33.293027
                        ],
                        [
                            -112.082624,
                            33.293396
                        ],
                        [
                            -112.082041,
                            33.294275
                        ],
                        [
                            -112.081615,
                            33.29506
                        ],
                        [
                            -112.081217,
                            33.295844
                        ],
                        [
                            -112.080889,
                            33.296605
                        ],
                        [
                            -112.080719,
                            33.297151
                        ],
                        [
                            -112.080605,
                            33.297615
                        ]
                    ]
                ]
            },
            "properties": {
                "name": "Zone_9",
                "fill": "rgba(130, 47, 47, 1)"
            },
            "bbox": [
                -112.085326,
                33.292469,
                -112.080605,
                33.297995
            ]
        },
        {
            "type": "Feature",
            "geometry": {
                "type": "Polygon",
                "coordinates": [
                    [
                        [
                            -112.091552,
                            33.302291
                        ],
                        [
                            -112.091204,
                            33.30025
                        ],
                        [
                            -112.090767,
                            33.299258
                        ],
                        [
                            -112.089842,
                            33.297765
                        ],
                        [
                            -112.08898,
                            33.297629
                        ],
                        [
                            -112.08866,
                            33.29766
                        ],
                        [
                            -112.088332,
                            33.297939
                        ],
                        [
                            -112.088108,
                            33.298422
                        ],
                        [
                            -112.087968,
                            33.298987
                        ],
                        [
                            -112.087993,
                            33.300344
                        ],
                        [
                            -112.087431,
                            33.303101
                        ],
                        [
                            -112.089125,
                            33.302729
                        ],
                        [
                            -112.091552,
                            33.302291
                        ]
                    ]
                ]
            },
            "properties": {
                "name": "Zone_10",
                "fill": "rgba(130, 47, 47, 1)"
            },
            "bbox": [
                -112.091552,
                33.297629,
                -112.087431,
                33.303101
            ]
        },
        {
            "type": "Feature",
            "geometry": {
                "type": "Polygon",
                "coordinates": [
                    [
                        [
                            -112.085615,
                            33.303185
                        ],
                        [
                            -112.085495,
                            33.301449
                        ],
                        [
                            -112.085469,
                            33.299822
                        ],
                        [
                            -112.08565,
                            33.298965
                        ],
                        [
                            -112.085884,
                            33.298174
                        ],
                        [
                            -112.082128,
                            33.297955
                        ],
                        [
                            -112.082333,
                            33.299513
                        ],
                        [
                            -112.082437,
                            33.300046
                        ],
                        [
                            -112.082574,
                            33.300593
                        ],
                        [
                            -112.082496,
                            33.300859
                        ],
                        [
                            -112.082281,
                            33.301133
                        ],
                        [
                            -112.081816,
                            33.301723
                        ],
                        [
                            -112.079138,
                            33.303861
                        ],
                        [
                            -112.07925,
                            33.304458
                        ],
                        [
                            -112.079543,
                            33.305085
                        ],
                        [
                            -112.080271,
                            33.305015
                        ],
                        [
                            -112.080958,
                            33.304724
                        ],
                        [
                            -112.081711,
                            33.304442
                        ],
                        [
                            -112.083604,
                            33.303536
                        ],
                        [
                            -112.084402,
                            33.303329
                        ],
                        [
                            -112.085615,
                            33.303185
                        ]
                    ]
                ]
            },
            "properties": {
                "name": "Zone_11",
                "fill": "#312E81"
            },
            "bbox": [
                -112.085884,
                33.297955,
                -112.079138,
                33.305085
            ]
        },
        {
            "type": "Feature",
            "geometry": {
                "type": "Polygon",
                "coordinates": [
                    [
                        [
                            -112.077739,
                            33.303323
                        ],
                        [
                            -112.078848,
                            33.302659
                        ],
                        [
                            -112.080169,
                            33.301815
                        ],
                        [
                            -112.08132,
                            33.301103
                        ],
                        [
                            -112.081732,
                            33.300473
                        ],
                        [
                            -112.081533,
                            33.299808
                        ],
                        [
                            -112.081178,
                            33.299428
                        ],
                        [
                            -112.080638,
                            33.299167
                        ],
                        [
                            -112.080482,
                            33.299511
                        ],
                        [
                            -112.080226,
                            33.299903
                        ],
                        [
                            -112.079842,
                            33.300355
                        ],
                        [
                            -112.079572,
                            33.300675
                        ],
                        [
                            -112.079146,
                            33.301032
                        ],
                        [
                            -112.078763,
                            33.301328
                        ],
                        [
                            -112.078308,
                            33.301661
                        ],
                        [
                            -112.077853,
                            33.30197
                        ],
                        [
                            -112.077143,
                            33.302409
                        ],
                        [
                            -112.07656,
                            33.302991
                        ],
                        [
                            -112.076347,
                            33.303395
                        ],
                        [
                            -112.077086,
                            33.30362
                        ],
                        [
                            -112.077739,
                            33.303323
                        ]
                    ]
                ]
            },
            "properties": {
                "name": "Zone_12",
                "fill": "rgba(47, 130, 78, 1)"
            },
            "bbox": [
                -112.081732,
                33.299167,
                -112.076347,
                33.30362
            ]
        }
    ]
}